[
    {
        "Altitude(m)": 604221.2250865076,
        "Argument of Periapsis(deg)": 0.0,
        "Eccentricity": 0.0,
        "Inclination(deg)": 60.0,
        "Latitude(deg)": 14.117364237225388,
        "Longitude(deg)": 58.33413252077261,
        "Mean Anomaly(deg)": 16.363600000000012,
        "RAAN(deg)": 150.0,
        "Satellite Name": "Test1 661",
        "Satellite Number": 661,
        "Semi-Major Axis(m)": 6980739.136638005,
        "Time(s)": 0
    },
    {
        "Altitude(m)": 604235.3667950658,
        "Argument of Periapsis(deg)": 0.00010418945913296404,
        "Eccentricity": 0.0,
        "Inclination(deg)": 60.0,
        "Latitude(deg)": 14.651761423925075,
        "Longitude(deg)": 58.62257877822795,
        "Mean Anomaly(deg)": 16.983706145461838,
        "RAAN(deg)": 149.99957995086027,
        "Satellite Name": "Test1 661",
        "Satellite Number": 661,
        "Semi-Major Axis(m)": 6980739.136638005,
        "Time(s)": 10
    }
]